ONEWEB-0029             
1 45445U 20020X   25159.31539309 -.00000858  00000+0 -24571-2 0  9994
2 45445  87.8838  95.5793 0001900  80.3158 279.8184 13.11418055253658
ONEWEB-0068             
1 45446U 20020Y   25159.52804473 -.00000273  00000+0 -80534-3 0  9998
2 45446  87.8841  95.5259 0001867  81.1359 278.9980 13.11414427253624
ONEWEB-0046             
1 45447U 20020Z   25159.51971280  .00000069  00000+0  16006-3 0  9993
2 45447  87.8839  95.5374 0001888  72.5166 287.6168 13.11416564253644
ONEWEB-0063             
1 45448U 20020AA  25159.54854029 -.00000447  00000+0 -12975-2 0  9990
2 45448  87.8841  95.5300 0002102  73.1933 286.9425 13.11418871253726
ONEWEB-0019             
1 45449U 20020AB  25159.52225642  .00000058  00000+0  12666-3 0  9996
2 45449  87.8841  95.5518 0001972  81.9870 278.1482 13.11416802253569
ONEWEB-0094             
1 45450U 20020AC  25159.29562839  .00000134  00000+0  31288-3 0  9990
2 45450  87.9070  80.2775 0001886  76.1904 283.9437 13.17649691257074
ONEWEB-0087             
1 45451U 20020AD  25159.55856231 -.00000023  00000+0 -99578-4 0  9998
2 45451  87.8837  95.4817 0001742  78.6978 281.4346 13.11420817253618
ONEWEB-0082             
1 45452U 20020AE  25159.32641736 -.00000123  00000+0 -38197-3 0  9996
2 45452  87.8842  95.5495 0001862  83.5610 276.5730 13.11420996253675
ONEWEB-0050             
1 45453U 20020AF  25159.38687742 -.00002036  00000+0 -21099-3 0  9998
2 45453  87.9974 297.6095 0001703 162.0284 198.1006 14.90612026284728
ONEWEB-0034             
1 45454U 20020AG  25159.34762626  .00000624  00000+0  17246-2 0  9997
2 45454  87.8839  95.5644 0001988  79.5943 280.5409 13.11417068253597
ONEWEB-0060             
1 45455U 20020AH  25159.31468883 -.00000459  00000+0 -13305-2 0  9993
2 45455  87.8845  95.5981 0002074  75.4874 284.6484 13.11416661253545
ONEWEB-0086             
1 45456U 20020AJ  25159.52649537 -.00000172  00000+0 -52019-3 0  9992
2 45456  87.8837  95.5278 0001628  79.6293 280.5019 13.11416869253630
ONEWEB-0088             
1 45457U 20020AK  25159.35186430  .00000624  00000+0  17253-2 0  9992
2 45457  87.8836  95.5126 0001947  77.6524 282.4822 13.11415923253544
ONEWEB-0102             
1 47258U 20100A   25159.49642783  .00000404  00000+0  10872-2 0  9991
2 47258  87.8890  65.0142 0002101  80.2765 279.8600 13.12442380215714
ONEWEB-0109             
1 47259U 20100B   25159.42830474  .00000234  00000+0  61611-3 0  9990
2 47259  87.8888  64.9967 0002033  80.7615 279.3744 13.12443436215535
ONEWEB-0110             
1 47260U 20100C   25159.45425620 -.00000351  00000+0 -10100-2 0  9996
2 47260  87.8885  64.9762 0001899  82.2180 277.9164 13.12444598215709
ONEWEB-0111             
1 47261U 20100D   25159.18012671  .00000463  00000+0  12522-2 0  9997
2 47261  87.8888  65.0449 0001926  78.4845 281.6500 13.12444235215505
ONEWEB-0114             
1 47262U 20100E   25159.43965625 -.00000120  00000+0 -36943-3 0  9998
2 47262  87.8886  64.9938 0002264  78.3002 281.8380 13.12440643215490
ONEWEB-0117             
1 47263U 20100F   25159.27906789  .00000157  00000+0  40116-3 0  9992
2 47263  87.8890  65.0165 0001875  78.3746 281.7592 13.12441331215480
ONEWEB-0118             
1 47264U 20100G   25159.46399282 -.00000382  00000+0 -10978-2 0  9992
2 47264  87.8890  64.9810 0002143  70.7780 289.3580 13.12444770215705
ONEWEB-0119             
1 47265U 20100H   25159.49156609  .00000372  00000+0  99907-3 0  9997
2 47265  87.8891  65.0145 0001891  79.1642 280.9700 13.12444476215680
ONEWEB-0120             
1 47266U 20100J   25159.43817401 -.00000054  00000+0 -18684-3 0  9998
2 47266  87.8892  65.0200 0002095  78.5482 281.5882 13.12443311215704
ONEWEB-0121             
1 47267U 20100K   25159.19798766  .00000380  00000+0  10211-2 0  9991
2 47267  87.8890  65.0406 0002077  83.0756 277.0609 13.12435902215586
ONEWEB-0122             
1 47268U 20100L   25159.49791888  .00000251  00000+0  66165-3 0  9990
2 47268  87.8885  64.9855 0002024  82.6933 277.4426 13.12441475215539
ONEWEB-0123             
1 47269U 20100M   25159.18824104  .00000506  00000+0  13711-2 0  9996
2 47269  87.8888  65.0735 0001971  76.2468 283.8880 13.12444115215634
ONEWEB-0124             
1 47270U 20100N   25159.48182704  .00000221  00000+0  57854-3 0  9995
2 47270  87.8889  65.0129 0001713  78.4413 281.6908 13.12445274215557
ONEWEB-0125             
1 47271U 20100P   25159.45910071 -.00000360  00000+0 -10351-2 0  9995
2 47271  87.8892  64.9801 0001763  70.1574 289.9745 13.12441170215617
ONEWEB-0126             
1 47272U 20100Q   25159.48035799  .00000196  00000+0  50927-3 0  9993
2 47272  87.8910  64.9852 0001927  78.1557 281.9788 13.12426067215680
ONEWEB-0127             
1 47273U 20100R   25159.44614153 -.00000281  00000+0 -81622-3 0  9990
2 47273  87.8890  65.0158 0002069  80.6439 279.4923 13.12444038215708
ONEWEB-0128             
1 47274U 20100S   25159.46884065 -.00000176  00000+0 -52533-3 0  9996
2 47274  87.8897  65.0364 0001925  85.9350 274.1999 13.12441881215725
ONEWEB-0129             
1 47275U 20100T   25159.44776136 -.00000316  00000+0 -91362-3 0  9993
2 47275  87.8891  64.9856 0003113  81.6480 278.5001 13.12441283215652
ONEWEB-0130             
1 47276U 20100U   25159.17038785  .00000150  00000+0  38047-3 0  9990
2 47276  87.8888  65.0424 0001902  81.3411 278.7933 13.12446494215584
ONEWEB-0131             
1 47277U 20100V   25159.16715015 -.00000032  00000+0 -12480-3 0  9992
2 47277  87.8893  65.0682 0001842  81.5155 278.6183 13.12443950215622
ONEWEB-0132             
1 47278U 20100W   25159.19634512  .00000372  00000+0  99960-3 0  9991
2 47278  87.8890  65.0637 0001684  76.1520 283.9796 13.12443789215528
ONEWEB-0133             
1 47279U 20100X   25159.28866826 -.00000120  00000+0 -36936-3 0  9994
2 47279  87.8887  65.0239 0001822  82.3021 277.8315 13.12443488215695
ONEWEB-0134             
1 47280U 20100Y   25159.48669771  .00000339  00000+0  90595-3 0  9999
2 47280  87.8884  64.9685 0002038  85.7469 274.3892 13.12443337215695
ONEWEB-0135             
1 47281U 20100Z   25159.45749367 -.00000402  00000+0 -11516-2 0  9995
2 47281  87.8891  65.0105 0001943  92.8255 267.3096 13.12443043215714
ONEWEB-0136             
1 47282U 20100AA  25159.17200756  .00000199  00000+0  51677-3 0  9993
2 47282  87.8890  65.0346 0002213  88.6042 271.5340 13.12446322215609
ONEWEB-0137             
1 47283U 20100AB  25159.43478447  .00000096  00000+0  23282-3 0  9994
2 47283  87.8886  64.9904 0002029  73.6208 286.5144 13.12441100215546
ONEWEB-0138             
1 47284U 20100AC  25159.18499115  .00000507  00000+0  13731-2 0  9996
2 47284  87.8884  65.0518 0002008  80.8222 279.3134 13.12445226215598
ONEWEB-0139             
1 47285U 20100AD  25159.30029879 -.00000534  00000+0 -15194-2 0  9994
2 47285  87.8892  65.0192 0001922  78.4368 281.6976 13.12442880215687
ONEWEB-0140             
1 47286U 20100AE  25159.48345399  .00000234  00000+0  61434-3 0  9996
2 47286  87.8886  64.9692 0001986  81.7377 278.3976 13.12443591215673
ONEWEB-0141             
1 47287U 20100AF  25159.45248190 -.00000362  00000+0 -10418-2 0  9994
2 47287  87.8889  64.9925 0002102  69.4780 290.6574 13.12441386215657
ONEWEB-0142             
1 47288U 20100AG  25159.28894375 -.00000167  00000+0 -49926-3 0  9998
2 47288  87.8905  65.0253 0002190  75.5707 284.5664 13.12442473215624
ONEWEB-0143             
1 47289U 20100AH  25159.29852044 -.00000355  00000+0 -10209-2 0  9997
2 47289  87.8890  65.0282 0001901  79.2319 280.9023 13.12441304215608
ONEWEB-0144             
1 47290U 20100AJ  25159.49967466  .00000442  00000+0  11930-2 0  9993
2 47290  87.8886  64.9696 0002230  79.5319 280.6060 13.12444619215555
ONEWEB-0145             
1 47291U 20100AK  25159.47047158 -.00000190  00000+0 -56277-3 0  9995
2 47291  87.8887  65.0012 0002019  80.3171 279.8186 13.12443822215747
ONEWEB-0146             
1 47292U 20100AL  25159.46722571 -.00000303  00000+0 -87801-3 0  9997
2 47292  87.8889  64.9884 0001555  78.4566 281.6737 13.12443504215655
ONEWEB-0147             
1 47293U 20100AM  25159.43317338  .00000104  00000+0  25359-3 0  9993
2 47293  87.8886  64.9755 0002023  86.2580 273.8779 13.12442844215547
ONEWEB-0115             
1 48042U 21025A   25159.37225272 -.00000331  00000+0 -94214-3 0  9991
2 48042  87.8971  34.5005 0001753  81.3769 278.7559 13.13469748204529
ONEWEB-0152             
1 48043U 21025B   25159.38580405 -.00000134  00000+0 -40154-3 0  9990
2 48043  87.8977  34.5108 0001708  83.7836 276.3488 13.13472504204485
ONEWEB-0153             
1 48044U 21025C   25159.36378818 -.00000185  00000+0 -54228-3 0  9995
2 48044  87.8980  34.5118 0001834  80.3678 279.7658 13.13470085204475
ONEWEB-0154             
1 48045U 21025D   25159.20804554 -.00000139  00000+0 -41531-3 0  9992
2 48045  87.8975  34.5432 0001817  83.7464 276.3872 13.13468696204410
ONEWEB-0116             
1 48046U 21025E   25159.39933881  .00000254  00000+0  66157-3 0  9996
2 48046  87.8978  34.4843 0001655  84.0770 276.0547 13.13470044204587
ONEWEB-0150             
1 48047U 21025F   25159.37562921 -.00000265  00000+0 -76106-3 0  9997
2 48047  87.8974  34.4874 0001819  76.6240 283.5092 13.13468451204474
ONEWEB-0107             
1 48048U 21025G   25159.14878958 -.00000250  00000+0 -71975-3 0  9996
2 48048  87.8973  34.5304 0002139  81.6572 278.4800 13.13468930204420
ONEWEB-0101             
1 48049U 21025H   25159.41626836  .00000272  00000+0  71052-3 0  9991
2 48049  87.8979  34.5144 0001924  84.8125 275.3224 13.13471773204435
ONEWEB-0113             
1 48050U 21025J   25159.58112245  .00000009  00000+0 -97157-5 0  9990
2 48050  87.8978  34.4405 0001687  78.3442 281.7877 13.13972664204543
ONEWEB-0112             
1 48051U 21025K   25159.38240885 -.00000162  00000+0 -47906-3 0  9997
2 48051  87.8972  34.4811 0001820  78.7040 281.4293 13.13469623204529
